{
    "links": {
        "self": "http://www.neowsapp.com/rest/v1/neo/3757197?api_key=iIulBulltgU6a56xZRHN4H3l9WmuAYTsLGpBGhQ2"
    },
    "id": "3757197",
    "neo_reference_id": "3757197",
    "name": "(2016 PS26)",
    "designation": "2016 PS26",
    "nasa_jpl_url": "http://ssd.jpl.nasa.gov/sbdb.cgi?sstr=3757197",
    "absolute_magnitude_h": 25.4,
    "estimated_diameter": {
        "kilometers": {
            "estimated_diameter_min": 0.022108281,
            "estimated_diameter_max": 0.0494356193
        },
        "meters": {
            "estimated_diameter_min": 22.1082810359,
            "estimated_diameter_max": 49.435619262
        },
        "miles": {
            "estimated_diameter_min": 0.0137374447,
            "estimated_diameter_max": 0.0307178602
        },
        "feet": {
            "estimated_diameter_min": 72.5337327539,
            "estimated_diameter_max": 162.1903570994
        }
    },
    "is_potentially_hazardous_asteroid": false,
    "close_approach_data": [
        {
            "close_approach_date": "2016-08-25",
            "close_approach_date_full": "2016-Aug-25 11:23",
            "epoch_date_close_approach": 1472124180000,
            "relative_velocity": {
                "kilometers_per_second": "11.6226722993",
                "kilometers_per_hour": "41841.6202776557",
                "miles_per_hour": "25998.7556664133"
            },
            "miss_distance": {
                "astronomical": "0.0354096183",
                "lunar": "13.7743415187",
                "kilometers": "5297203.475193021",
                "miles": "3291529.6092288498"
            },
            "orbiting_body": "Earth"
        }
    ],
    "orbital_data": {
        "orbit_id": "5",
        "orbit_determination_date": "2017-04-06 08:24:37",
        "first_observation_date": "2016-08-08",
        "last_observation_date": "2016-08-22",
        "data_arc_in_days": 14,
        "observations_used": 20,
        "orbit_uncertainty": "8",
        "minimum_orbit_intersection": ".00642787",
        "jupiter_tisserand_invariant": "3.156",
        "epoch_osculation": "2457609.5",
        "eccentricity": ".6296574598213663",
        "semi_major_axis": "2.503523573383658",
        "inclination": "1.912659174143277",
        "ascending_node_longitude": "237.0420868762403",
        "orbital_period": "1446.858148544041",
        "perihelion_distance": ".927161279563994",
        "perihelion_argument": "135.3135859175229",
        "aphelion_distance": "4.079885867203322",
        "perihelion_time": "2457655.702397989114",
        "mean_anomaly": "348.5041506710119",
        "mean_motion": ".2488149929295173",
        "equinox": "J2000",
        "orbit_class": {
            "orbit_class_type": "APO",
            "orbit_class_description": "Near-Earth asteroid orbits which cross the Earth’s orbit similar to that of 1862 Apollo",
            "orbit_class_range": "a (semi-major axis) > 1.0 AU; q (perihelion) < 1.017 AU"
        }
    },
    "is_sentry_object": false
}